0 GSAT 2
1 27807U 03018A   13282.76793077 -.00000351  00000-0  00000+0 0  8198
2 27807 002.3918 071.0944 0001245 183.2588 177.0204 00.99856352 38189
0 GSAT 2
1 27807U 03018A   13282.76822529  .00000000  00000-0  10000-3 0  8200
2 27807 002.3936 071.1920 0001783 197.0277 163.2530 00.99853255 38187
0 GSAT 2
1 27807U 03018A   13286.77366654 -.00000372  00000-0  00000+0 0  8216
2 27807 002.4001 071.0528 0001412 186.9300 173.3921 00.99854500 38222
0 GSAT 2
1 27807U 03018A   13288.77651832 -.00000373  00000-0  00000+0 0  8225
2 27807 002.4044 071.0362 0001445 190.2197 170.1035 00.99853498 38241
0 GSAT 2
1 27807U 03018A   13290.77917466 -.00000368  00000-0  00000+0 0  8231
2 27807 002.4086 071.0148 0001541 191.5805 168.6712 00.99852458 38267
0 GSAT 2
1 27807U 03018A   13292.78177392 -.00000359  00000-0  00000+0 0  8241
2 27807 002.4127 070.9946 0001685 195.4097 164.7415 00.99851408 38285
0 GSAT 2
1 27807U 03018A   13294.78443691 -.00000347  00000-0  00000+0 0  8259
2 27807 002.4169 070.9771 0001823 194.1272 165.9367 00.99850346 38304
